[{"OBJECT_NAME":"IRIDIUM 114","OBJECT_ID":"2017-003G","EPOCH":"2026-03-09T17:25:34.142304","MEAN_MOTION":14.34217503,"ECCENTRICITY":0.00021341,"INCLINATION":86.3979,"RA_OF_ASC_NODE":130.0546,"ARG_OF_PERICENTER":90.4305,"MEAN_ANOMALY":269.7135,"EPHEMERIS_TYPE":0,"CLASSIFICATION_TYPE":"U","NORAD_CAT_ID":41923,"ELEMENT_SET_NO":999,"REV_AT_EPOCH":47899,"BSTAR":9.4657235e-5,"MEAN_MOTION_DOT":2.85e-6,"MEAN_MOTION_DDOT":0},{"OBJECT_NAME":"CZ-6A DEB","OBJECT_ID":"2024-140ND","EPOCH":"2026-03-09T20:04:43.122144","MEAN_MOTION":14.52547319,"ECCENTRICITY":0.009263,"INCLINATION":88.905,"RA_OF_ASC_NODE":276.0644,"ARG_OF_PERICENTER":246.0688,"MEAN_ANOMALY":113.0798,"EPHEMERIS_TYPE":0,"CLASSIFICATION_TYPE":"U","NORAD_CAT_ID":61087,"ELEMENT_SET_NO":999,"REV_AT_EPOCH":8130,"BSTAR":0.00049229997,"MEAN_MOTION_DOT":2.144e-5,"MEAN_MOTION_DDOT":0}]
